{"type": "FeatureCollection", "features": [ {"type": "Feature", "properties": {"norad_id": 43683, "name": "BEIDOU-3 G1 (C59)", "group": "gnss", "lat": -1.8305654074924462, "lon": -31.697551630866233, "alt_km": 35793.98839522092, "timestamp": "2025-12-04T07:39:36.383299+00:00", "meta": {"OBJECT_NAME": "BEIDOU-3 G1 (C59)", "OBJECT_ID": "2018-085A", "EPOCH": "2025-12-03T19:33:27.900864", "MEAN_MOTION": 1.00273498, "ECCENTRICITY": 0.00020373, "INCLINATION": 2.5836, "RA_OF_ASC_NODE": 103.2315, "ARG_OF_PERICENTER": 63.7689, "MEAN_ANOMALY": 339.3049, "EPHEMERIS_TYPE": 0, "CLASSIFICATION_TYPE": "U", "NORAD_CAT_ID": 43683, "ELEMENT_SET_NO": 999, "REV_AT_EPOCH": 2610, "BSTAR": 0, "MEAN_MOTION_DOT": -2.6e-06, "MEAN_MOTION_DDOT": 0}, "tle": {"line1": "1 43683U 18085A   25337.81490626 -.00000260  00000+0  00000+0 0  9999", "line2": "2 43683   2.5836 103.2315 0002037  63.7689 339.3049  1.00273498 26100"}}, "geometry": {"type": "Point", "coordinates": [-31.697551630866233, -1.8305654074924462]}}, {"type": "Feature", "properties": {"norad_id": 43687, "name": "COSMOS 2529 (757)", "group": "gnss", "lat": -64.22629196629457, "lon": 105.10158617455703, "alt_km": 19118.4026397019, "timestamp": "2025-12-04T07:39:36.383309+00:00", "meta": {"OBJECT_NAME": "COSMOS 2529 (757)", "OBJECT_ID": "2018-086A", "EPOCH": "2025-12-03T00:44:36.468960", "MEAN_MOTION": 2.13101888, "ECCENTRICITY": 0.00072932, "INCLINATION": 64.2917, "RA_OF_ASC_NODE": 199.2166, "ARG_OF_PERICENTER": 254.4618, "MEAN_ANOMALY": 105.5545, "EPHEMERIS_TYPE": 0, "CLASSIFICATION_TYPE": "U", "NORAD_CAT_ID": 43687, "ELEMENT_SET_NO": 999, "REV_AT_EPOCH": 5510, "BSTAR": 0, "MEAN_MOTION_DOT": 1.06e-06, "MEAN_MOTION_DDOT": 0}, "tle": {"line1": "1 43687U 18086A   25337.03097765  .00000106  00000+0  00000+0 0  9993", "line2": "2 43687  64.2917 199.2166 0007293 254.4618 105.5545  2.13101888 55102"}}, "geometry": {"type": "Point", "coordinates": [105.10158617455703, -64.22629196629457]}}, {"type": "Feature", "properties": {"norad_id": 43706, "name": "BEIDOU-3 M17 (C36)", "group": "gnss", "lat": -39.06132646676792, "lon": 153.01880014167625, "alt_km": 21515.323317532835, "timestamp": "2025-12-04T07:39:36.383319+00:00", "meta": {"OBJECT_NAME": "BEIDOU-3 M17 (C36)", "OBJECT_ID": "2018-093A", "EPOCH": "2025-12-03T14:10:37.280064", "MEAN_MOTION": 1.86228161, "ECCENTRICITY": 0.00063465, "INCLINATION": 54.1727, "RA_OF_ASC_NODE": 188.9327, "ARG_OF_PERICENTER": 306.3477, "MEAN_ANOMALY": 234.3147, "EPHEMERIS_TYPE": 0, "CLASSIFICATION_TYPE": "U", "NORAD_CAT_ID": 43706, "ELEMENT_SET_NO": 999, "REV_AT_EPOCH": 4789, "BSTAR": 0, "MEAN_MOTION_DOT": 1.14e-06, "MEAN_MOTION_DDOT": 0}, "tle": {"line1": "1 43706U 18093A   25337.59070926  .00000114  00000+0  00000+0 0  9993", "line2": "2 43706  54.1727 188.9327 0006346 306.3477 234.3147  1.86228161 47892"}}, "geometry": {"type": "Point", "coordinates": [153.01880014167625, -39.06132646676792]}}, {"type": "Feature", "properties": {"norad_id": 43707, "name": "BEIDOU-3 M18 (C37)", "group": "gnss", "lat": 32.82434024403883, "lon": -143.31331448334333, "alt_km": 21513.31089767619, "timestamp": "2025-12-04T07:39:36.383329+00:00", "meta": {"OBJECT_NAME": "BEIDOU-3 M18 (C37)", "OBJECT_ID": "2018-093B", "EPOCH": "2025-12-02T02:36:40.524768", "MEAN_MOTION": 1.86226401, "ECCENTRICITY": 0.00063572, "INCLINATION": 54.1734, "RA_OF_ASC_NODE": 188.975, "ARG_OF_PERICENTER": 350.835, "MEAN_ANOMALY": 9.249, "EPHEMERIS_TYPE": 0, "CLASSIFICATION_TYPE": "U", "NORAD_CAT_ID": 43707, "ELEMENT_SET_NO": 999, "REV_AT_EPOCH": 4786, "BSTAR": 0, "MEAN_MOTION_DOT": 1.21e-06, "MEAN_MOTION_DDOT": 0}, "tle": {"line1": "1 43707U 18093B   25336.10880237  .00000121  00000+0  00000+0 0  9992", "line2": "2 43707  54.1734 188.9750 0006357 350.8350   9.2490  1.86226401 47869"}}, "geometry": {"type": "Point", "coordinates": [-143.31331448334333, 32.82434024403883]}}, {"type": "Feature", "properties": {"norad_id": 43873, "name": "GPS BIII-1  (PRN 04)", "group": "gnss", "lat": -3.0128950953439766, "lon": -78.06722905766186, "alt_km": 20086.75645960167, "timestamp": "2025-12-04T07:39:36.383340+00:00", "meta": {"OBJECT_NAME": "GPS BIII-1  (PRN 04)", "OBJECT_ID": "2018-109A", "EPOCH": "2025-12-02T13:53:48.865056", "MEAN_MOTION": 2.00553145, "ECCENTRICITY": 0.00371805, "INCLINATION": 55.5613, "RA_OF_ASC_NODE": 99.9484, "ARG_OF_PERICENTER": 194.5324, "MEAN_ANOMALY": 172.7169, "EPHEMERIS_TYPE": 0, "CLASSIFICATION_TYPE": "U", "NORAD_CAT_ID": 43873, "ELEMENT_SET_NO": 999, "REV_AT_EPOCH": 5113, "BSTAR": 0, "MEAN_MOTION_DOT": 1e-07, "MEAN_MOTION_DDOT": 0}, "tle": {"line1": "1 43873U 18109A   25336.57903779  .00000010  00000+0  00000+0 0  9999", "line2": "2 43873  55.5613  99.9484 0037180 194.5324 172.7169  2.00553145 51130"}}, "geometry": {"type": "Point", "coordinates": [-78.06722905766186, -3.0128950953439766]}}, {"type": "Feature", "properties": {"norad_id": 44204, "name": "BEIDOU-3 IGSO-1 (C38)", "group": "gnss", "lat": -57.71494518071933, "lon": -63.945066362515234, "alt_km": 35713.55536781052, "timestamp": "2025-12-04T07:39:36.383350+00:00", "meta": {"OBJECT_NAME": "BEIDOU-3 IGSO-1 (C38)", "OBJECT_ID": "2019-023A", "EPOCH": "2025-11-19T14:15:02.708640", "MEAN_MOTION": 1.00252177, "ECCENTRICITY": 0.0026966, "INCLINATION": 58.4003, "RA_OF_ASC_NODE": 39.8168, "ARG_OF_PERICENTER": 221.2202, "MEAN_ANOMALY": 126.9723, "EPHEMERIS_TYPE": 0, "CLASSIFICATION_TYPE": "U", "NORAD_CAT_ID": 44204, "ELEMENT_SET_NO": 999, "REV_AT_EPOCH": 510, "BSTAR": 0, "MEAN_MOTION_DOT": -2.26e-06, "MEAN_MOTION_DDOT": 0}, "tle": {"line1": "1 44204U 19023A   25323.59378135 -.00000226  00000+0  00000+0 0  9994", "line2": "2 44204  58.4003  39.8168 0026966 221.2202 126.9723  1.00252177  5102"}}, "geometry": {"type": "Point", "coordinates": [-63.945066362515234, -57.71494518071933]}}, {"type": "Feature", "properties": {"norad_id": 44231, "name": "BEIDOU-2 G8 (C01)", "group": "gnss", "lat": -1.60031721406613, "lon": -27.15361188070516, "alt_km": 35751.88433729407, "timestamp": "2025-12-04T07:39:36.383362+00:00", "meta": {"OBJECT_NAME": "BEIDOU-2 G8 (C01)", "OBJECT_ID": "2019-027A", "EPOCH": "2025-12-03T19:34:50.268576", "MEAN_MOTION": 1.00270041, "ECCENTRICITY": 0.00083455, "INCLINATION": 1.6376, "RA_OF_ASC_NODE": 74.7006, "ARG_OF_PERICENTER": 254.7758, "MEAN_ANOMALY": 181.7028, "EPHEMERIS_TYPE": 0, "CLASSIFICATION_TYPE": "U", "NORAD_CAT_ID": 44231, "ELEMENT_SET_NO": 999, "REV_AT_EPOCH": 2412, "BSTAR": 0, "MEAN_MOTION_DOT": -2.3e-06, "MEAN_MOTION_DDOT": 0}, "tle": {"line1": "1 44231U 19027A   25337.81585959 -.00000230  00000+0  00000+0 0  9997", "line2": "2 44231   1.6376  74.7006 0008345 254.7758 181.7028  1.00270041 24122"}}, "geometry": {"type": "Point", "coordinates": [-27.15361188070516, -1.60031721406613]}}, {"type": "Feature", "properties": {"norad_id": 44299, "name": "COSMOS 2534 (758)", "group": "gnss", "lat": 37.683134668750235, "lon": -139.05561246650862, "alt_km": 19136.898131306058, "timestamp": "2025-12-04T07:39:36.383374+00:00", "meta": {"OBJECT_NAME": "COSMOS 2534 (758)", "OBJECT_ID": "2019-030A", "EPOCH": "2025-12-01T03:07:57.438624", "MEAN_MOTION": 2.1310195, "ECCENTRICITY": 0.00091167, "INCLINATION": 64.3652, "RA_OF_ASC_NODE": 199.2842, "ARG_OF_PERICENTER": 283.4428, "MEAN_ANOMALY": 193.0266, "EPHEMERIS_TYPE": 0, "CLASSIFICATION_TYPE": "U", "NORAD_CAT_ID": 44299, "ELEMENT_SET_NO": 999, "REV_AT_EPOCH": 5070, "BSTAR": 0, "MEAN_MOTION_DOT": 9.9e-07, "MEAN_MOTION_DDOT": 0}, "tle": {"line1": "1 44299U 19030A   25335.13052591  .00000099  00000+0  00000+0 0  9991", "line2": "2 44299  64.3652 199.2842 0009116 283.4428 193.0266  2.13101950 50700"}}, "geometry": {"type": "Point", "coordinates": [-139.05561246650862, 37.683134668750235]}}, {"type": "Feature", "properties": {"norad_id": 44337, "name": "BEIDOU-3 IGSO-2 (C39)", "group": "gnss", "lat": 26.629853111164575, "lon": -39.861610178739056, "alt_km": 35692.66403609441, "timestamp": "2025-12-04T07:39:36.383385+00:00", "meta": {"OBJECT_NAME": "BEIDOU-3 IGSO-2 (C39)", "OBJECT_ID": "2019-035A", "EPOCH": "2025-12-01T05:17:49.661952", "MEAN_MOTION": 1.00274502, "ECCENTRICITY": 0.00376064, "INCLINATION": 55.2223, "RA_OF_ASC_NODE": 160.6035, "ARG_OF_PERICENTER": 202.2564, "MEAN_ANOMALY": 266.4761, "EPHEMERIS_TYPE": 0, "CLASSIFICATION_TYPE": "U", "NORAD_CAT_ID": 44337, "ELEMENT_SET_NO": 999, "REV_AT_EPOCH": 2368, "BSTAR": 0, "MEAN_MOTION_DOT": -2.5e-07, "MEAN_MOTION_DDOT": 0}, "tle": {"line1": "1 44337U 19035A   25335.22071368 -.00000025  00000+0  00000+0 0  9992", "line2": "2 44337  55.2223 160.6035 0037606 202.2564 266.4761  1.00274502 23688"}}, "geometry": {"type": "Point", "coordinates": [-39.861610178739056, 26.629853111164575]}}, {"type": "Feature", "properties": {"norad_id": 44506, "name": "GPS BIII-2  (PRN 18)", "group": "gnss", "lat": 54.36930068814906, "lon": 50.98284913068909, "alt_km": 20249.016287418006, "timestamp": "2025-12-04T07:39:36.383397+00:00", "meta": {"OBJECT_NAME": "GPS BIII-2  (PRN 18)", "OBJECT_ID": "2019-056A", "EPOCH": "2025-12-02T10:49:28.764768", "MEAN_MOTION": 2.00565569, "ECCENTRICITY": 0.00578163, "INCLINATION": 55.7251, "RA_OF_ASC_NODE": 338.9617, "ARG_OF_PERICENTER": 198.402, "MEAN_ANOMALY": 332.9603, "EPHEMERIS_TYPE": 0, "CLASSIFICATION_TYPE": "U", "NORAD_CAT_ID": 44506, "ELEMENT_SET_NO": 999, "REV_AT_EPOCH": 4612, "BSTAR": 0, "MEAN_MOTION_DOT": -6.1e-07, "MEAN_MOTION_DDOT": 0}, "tle": {"line1": "1 44506U 19056A   25336.45102737 -.00000061  00000+0  00000+0 0  9994", "line2": "2 44506  55.7251 338.9617 0057816 198.4020 332.9603  2.00565569 46121"}}, "geometry": {"type": "Point", "coordinates": [50.98284913068909, 54.36930068814906]}}]}